NORAD_CAT_ID,OBJECT_NAME,OBJECT_TYPE,EPOCH,MEAN_MOTION,ECCENTRICITY,INCLINATION,RA_OF_ASC_NODE,ARG_OF_PERICENTER,MEAN_ANOMALY,BSTAR,MEAN_MOTION_DOT,MEAN_MOTION_DDOT,TLE_LINE0,TLE_LINE1,TLE_LINE2,SEMIMAJOR_AXIS,PERIOD,APOGEE,PERIGEE,DECAYED
52492.0,STARLINK-3916,PAYLOAD,2024-05-28 13:00:03,15.08827383,0.0001415,53.2176,87.7436,90.549,269.5664,0.00031234,4.685e-05,0.0,0 STARLINK-3916,1 52492U 22049AT  24149.54170599  .00004685  00000-0  31234-3 0  9998,2 52492  53.2176  87.7436 0001415  90.5490 269.5664 15.08827383114246,6917.919,95.438,540.763,538.805,0.0
52492.0,STARLINK-3916,PAYLOAD,2024-05-29 03:18:31,15.08839456,0.0001344,53.2172,85.068,98.0449,262.0696,1.0983e-05,-1.13e-06,0.0,0 STARLINK-3916,1 52492U 22049AT  24150.13786796 -.00000113  00000-0  10983-4 0  9999,2 52492  53.2172  85.0680 0001344  98.0449 262.0696 15.08839456114339,6917.882,95.438,540.677,538.817,0.0
52492.0,STARLINK-3916,PAYLOAD,2024-05-29 19:12:23,15.08835587,0.0001445,53.2171,82.0976,79.5043,280.6112,2.237e-05,6.8e-07,0.0,0 STARLINK-3916,1 52492U 22049AT  24150.80027252  .00000068  00000-0  22370-4 0  9999,2 52492  53.2171  82.0976 0001445  79.5043 280.6112 15.08835587114597,6917.894,95.438,540.759,538.759,0.0
52492.0,STARLINK-3916,PAYLOAD,2024-05-30 01:33:56,15.08838897,0.0001334,53.2173,80.9067,89.15,270.9645,-5.0066e-05,-1.085e-05,0.0,0 STARLINK-3916,1 52492U 22049AT  24151.06523409 -.00001085  00000-0 -50066-4 0  9998,2 52492  53.2173  80.9067 0001334  89.1500 270.9645 15.08838897114476,6917.884,95.438,540.672,538.826,0.0
52492.0,STARLINK-3916,PAYLOAD,2024-05-30 22:13:55,15.08848774,0.000144,53.2181,77.0402,83.7358,276.3798,0.00013103,1.798e-05,0.0,0 STARLINK-3916,1 52492U 22049AT  24151.92634061  .00001798  00000-0  13103-3 0  9999,2 52492  53.2181  77.0402 0001440  83.7358 276.3798 15.08848774114603,6917.854,95.437,540.715,538.722,0.0
52492.0,STARLINK-3916,PAYLOAD,2024-05-31 01:24:41,15.08859203,0.0001351,53.2182,76.4463,82.8794,277.2352,0.00012729,1.739e-05,0.0,0 STARLINK-3916,1 52492U 22049AT  24152.05881403  .00001739  00000-0  12729-3 0  9996,2 52492  53.2182  76.4463 0001351  82.8794 277.2352 15.08859203114783,6917.822,95.436,540.621,538.752,0.0
52492.0,STARLINK-3916,PAYLOAD,2024-05-31 01:24:42,15.08850675,0.0002214,53.2185,76.4509,47.0222,313.0956,0.00014672,2.048e-05,0.0,0 STARLINK-3916,1 52492U 22049AT  24152.05882214  .00002048  00000-0  14672-3 0  9990,2 52492  53.2185  76.4509 0002214  47.0222 313.0956 15.08850675114788,6917.848,95.437,541.244,538.181,0.0
52492.0,STARLINK-3916,PAYLOAD,2024-05-31 18:53:56,15.08843526,0.0001717,53.2184,73.1749,103.161,256.9574,0.00011159,1.489e-05,0.0,0 STARLINK-3916,1 52492U 22049AT  24152.78746047  .00001489  00000-0  11159-3 0  9998,2 52492  53.2184  73.1749 0001717 103.1610 256.9574 15.08843526114899,6917.87,95.437,540.922,538.547,0.0
52492.0,STARLINK-3916,PAYLOAD,2024-05-31 22:04:42,15.08841654,0.0001613,53.2181,72.5802,104.6733,255.4438,9.7244e-05,1.26e-05,0.0,0 STARLINK-3916,1 52492U 22049AT  24152.91994147  .00001260  00000-0  97244-4 0  9996,2 52492  53.2181  72.5802 0001613 104.6733 255.4438 15.08841654114754,6917.875,95.437,540.856,538.624,0.0
52492.0,STARLINK-3916,PAYLOAD,2024-06-01 04:26:15,15.08843735,0.0001547,53.2186,71.3911,101.6877,258.4289,6.1559e-05,6.92e-06,0.0,0 STARLINK-3916,1 52492U 22049AT  24153.18490145  .00000692  00000-0  61559-4 0  9993,2 52492  53.2186  71.3911 0001547 101.6877 258.4289 15.08843735114792,6917.869,95.437,540.804,538.664,0.0
52492.0,STARLINK-3916,PAYLOAD,2024-06-01 21:55:30,15.08839503,0.0001638,53.2159,68.1173,102.481,257.6365,-0.00011901,-2.182e-05,0.0,0 STARLINK-3916,1 52492U 22049AT  24153.91355087 -.00002182  00000-0 -11901-3 0  9992,2 52492  53.2159  68.1173 0001638 102.4810 257.6365 15.08839503115068,6917.882,95.438,540.88,538.614,0.0
52492.0,STARLINK-3916,PAYLOAD,2024-06-02 10:38:35,15.08843846,0.0001078,53.2168,65.741,97.9122,262.1992,-0.0001535,-2.73e-05,0.0,0 STARLINK-3916,1 52492U 22049AT  24154.44346736 -.00002730  00000-0 -15350-3 0  9993,2 52492  53.2168  65.7410 0001078  97.9122 262.1992 15.08843846114989,6917.869,95.437,540.479,538.988,0.0
52492.0,STARLINK-3916,PAYLOAD,2024-06-03 00:57:04,15.08833985,0.0001266,53.2165,63.0648,95.3538,264.7598,4.0408e-05,3.55e-06,0.0,0 STARLINK-3916,1 52492U 22049AT  24155.03963186  .00000355  00000-0  40408-4 0  9995,2 52492  53.2165  63.0648 0001266  95.3538 264.7598 15.08833985115234,6917.899,95.438,540.64,538.888,0.0
52492.0,STARLINK-3916,PAYLOAD,2024-06-03 10:29:22,15.08845126,0.0001184,53.2174,61.281,92.6421,267.4706,8.0595e-05,9.95e-06,0.0,0 STARLINK-3916,1 52492U 22049AT  24155.43706515  .00000995  00000-0  80595-4 0  9991,2 52492  53.2174  61.2810 0001184  92.6421 267.4706 15.08845126115292,6917.865,95.437,540.549,538.911,0.0
52492.0,STARLINK-3916,PAYLOAD,2024-06-03 18:26:18,15.08832344,0.0001212,53.2186,59.7956,94.6488,265.4643,0.00011382,1.524e-05,0.0,0 STARLINK-3916,1 52492U 22049AT  24155.76827513  .00001524  00000-0  11382-3 0  9995,2 52492  53.2186  59.7956 0001212  94.6488 265.4643 15.08832344115347,6917.904,95.438,540.607,538.93,0.0
52492.0,STARLINK-3916,PAYLOAD,2024-06-04 00:47:51,15.0884079,0.0001471,53.2185,58.6086,96.178,263.938,0.00018988,2.735e-05,0.0,0 STARLINK-3916,1 52492U 22049AT  24156.03322959  .00002735  00000-0  18988-3 0  9994,2 52492  53.2185  58.6086 0001471  96.1780 263.9380 15.08840790115386,6917.878,95.438,540.761,538.725,0.0
52492.0,STARLINK-3916,PAYLOAD,2024-06-04 10:20:09,15.08846385,8.8e-05,53.2178,56.8204,70.8309,289.2778,0.00018216,2.613e-05,0.0,0 STARLINK-3916,1 52492U 22049AT  24156.43066531  .00002613  00000-0  18216-3 0  9998,2 52492  53.2178  56.8204 0000880  70.8309 289.2778 15.08846385115286,6917.861,95.437,540.335,539.117,0.0
52492.0,STARLINK-3916,PAYLOAD,2024-06-04 16:41:43,15.08832075,0.00018,53.2195,55.6306,76.7507,283.3686,6.1753e-05,6.95e-06,0.0,0 STARLINK-3916,1 52492U 22049AT  24156.69564112  .00000695  00000-0  61753-4 0  9997,2 52492  53.2195  55.6306 0001800  76.7507 283.3686 15.08832075115489,6917.905,95.438,541.015,538.524,0.0
52492.0,STARLINK-3916,PAYLOAD,2024-06-04 23:03:15,15.08835174,0.0001512,53.2201,54.4456,90.3938,269.7228,3.835e-06,-2.27e-06,0.0,0 STARLINK-3916,1 52492U 22049AT  24156.96060153 -.00000227  00000-0  38350-5 0  9993,2 52492  53.2201  54.4456 0001512  90.3938 269.7228 15.08835174115360,6917.895,95.438,540.806,538.714,0.0
52492.0,STARLINK-3916,PAYLOAD,2024-06-05 02:14:01,15.0884427,0.000111,53.2178,53.846,88.9753,271.1366,5.447e-05,5.79e-06,0.0,0 STARLINK-3916,1 52492U 22049AT  24157.09307312  .00000579  00000-0  54470-4 0  9998,2 52492  53.2178  53.8460 0001110  88.9753 271.1366 15.08844270115540,6917.867,95.437,540.5,538.964,0.0
52492.0,STARLINK-3916,PAYLOAD,2024-06-05 10:10:57,15.08835349,0.0001265,53.2189,52.361,88.9765,271.1372,-1.3863e-05,-5.08e-06,0.0,0 STARLINK-3916,1 52492U 22049AT  24157.42428147 -.00000508  00000-0 -13863-4 0  9990,2 52492  53.2189  52.3610 0001265  88.9765 271.1372 15.08835349115596,6917.895,95.438,540.635,538.884,0.0
52492.0,STARLINK-3916,PAYLOAD,2024-06-06 10:01:44,15.08846196,0.0001204,53.2186,47.8993,79.6997,280.4131,7.8923e-05,9.69e-06,0.0,0 STARLINK-3916,1 52492U 22049AT  24158.41787351  .00000969  00000-0  78923-4 0  9992,2 52492  53.2186  47.8993 0001204  79.6997 280.4131 15.08846196115748,6917.861,95.437,540.559,538.894,0.0
52492.0,STARLINK-3916,PAYLOAD,2024-06-07 16:14:04,15.08842961,0.0001778,53.2187,42.249,100.0089,260.1104,0.00010909,1.449e-05,0.0,0 STARLINK-3916,1 52492U 22049AT  24159.67643635  .00001449  00000-0  10909-3 0  9990,2 52492  53.2187  42.2490 0001778 100.0089 260.1104 15.08842961115939,6917.871,95.437,540.966,538.506,0.0
52492.0,STARLINK-3916,PAYLOAD,2024-06-07 22:35:36,15.08849866,0.0001805,53.2161,41.0605,101.5751,258.5444,0.00019859,2.875e-05,0.0,0 STARLINK-3916,1 52492U 22049AT  24159.94139241  .00002875  00000-0  19859-3 0  9990,2 52492  53.2161  41.0605 0001805 101.5751 258.5444 15.08849866115815,6917.85,95.437,540.964,538.467,0.0
52492.0,STARLINK-3916,PAYLOAD,2024-06-08 01:46:22,15.08853894,0.0001369,53.2194,40.4647,105.2684,254.8459,0.00022313,3.266e-05,0.0,0 STARLINK-3916,1 52492U 22049AT  24160.07386929  .00003266  00000-0  22313-3 0  9997,2 52492  53.2194  40.4647 0001369 105.2684 254.8459 15.08853894115991,6917.838,95.437,540.65,538.756,0.0
52492.0,STARLINK-3916,PAYLOAD,2024-06-08 22:26:23,15.08835028,0.0001377,53.2183,36.5995,114.1189,245.9948,0.00014775,2.064e-05,0.0,0 STARLINK-3916,1 52492U 22049AT  24160.93499690  .00002064  00000-0  14775-3 0  9990,2 52492  53.2183  36.5995 0001377 114.1189 245.9948 15.08835028115969,6917.896,95.438,540.713,538.808,0.0
52492.0,STARLINK-3916,PAYLOAD,2024-06-09 01:37:09,15.08841655,0.0001651,53.2172,36.0039,98.7105,261.4075,4.092e-05,3.63e-06,0.0,0 STARLINK-3916,1 52492U 22049AT  24161.06747685  .00000363  00000-0  40920-4 0  9997,2 52492  53.2172  36.0039 0001651  98.7105 261.4075 15.08841655116149,6917.875,95.437,540.882,538.598,0.0
52492.0,STARLINK-3916,PAYLOAD,2024-06-09 20:41:48,15.08834181,0.0001505,53.2181,32.4359,87.7207,272.3957,7.334e-05,8.79e-06,0.0,0 STARLINK-3916,1 52492U 22049AT  24161.86236376  .00000879  00000-0  73340-4 0  9999,2 52492  53.2181  32.4359 0001505  87.7207 272.3957 15.08834181116262,6917.898,95.438,540.804,538.722,0.0
52492.0,STARLINK-3916,PAYLOAD,2024-06-09 22:17:11,15.08836854,0.0001304,53.2168,32.141,98.308,261.806,7.9285e-05,9.74e-06,0.0,0 STARLINK-3916,1 52492U 22049AT  24161.92860117  .00000974  00000-0  79285-4 0  9992,2 52492  53.2168  32.1410 0001304  98.3080 261.8060 15.08836854116117,6917.89,95.438,540.657,538.853,0.0
52492.0,STARLINK-3916,PAYLOAD,2024-06-10 07:49:29,15.08841551,0.0001327,53.2178,30.356,95.5365,264.5778,3.7334e-05,3.06e-06,0.0,0 STARLINK-3916,1 52492U 22049AT  24162.32603775  .00000306  00000-0  37334-4 0  9990,2 52492  53.2178  30.3560 0001327  95.5365 264.5778 15.08841551116334,6917.876,95.437,540.659,538.823,0.0
